NORAD_CAT_ID,OBJECT_NAME,OBJECT_TYPE,EPOCH,MEAN_MOTION,ECCENTRICITY,INCLINATION,RA_OF_ASC_NODE,ARG_OF_PERICENTER,MEAN_ANOMALY,BSTAR,MEAN_MOTION_DOT,MEAN_MOTION_DDOT,TLE_LINE0,TLE_LINE1,TLE_LINE2,SEMIMAJOR_AXIS,PERIOD,APOGEE,PERIGEE,DECAYED
54796.0,STARLINK-5415,PAYLOAD,2023-12-16 11:17:33,15.08851716,0.0001441,53.2188,84.0397,75.2292,284.886,-0.00016238,-2.872e-05,0.0,0 STARLINK-5415,1 54796U 22175AQ  23350.47053119 -.00002872  00000-0 -16238-3 0  9995,2 54796  53.2188  84.0397 0001441  75.2292 284.8860 15.08851716 55051,6917.845,95.437,540.706,538.713,0.0
54796.0,STARLINK-5415,PAYLOAD,2023-12-16 12:52:56,15.08852028,0.0001871,53.2194,83.7356,59.3873,300.7303,-0.00011208,-2.072e-05,0.0,0 STARLINK-5415,1 54796U 22175AQ  23350.53676988 -.00002072  00000-0 -11208-3 0  9991,2 54796  53.2194  83.7356 0001871  59.3873 300.7303 15.08852028 57222,6917.844,95.437,541.003,538.414,0.0
54796.0,STARLINK-5415,PAYLOAD,2023-12-17 11:08:21,15.0883289,0.0001586,53.2183,79.5808,84.3603,275.757,6.7928e-05,7.93e-06,0.0,0 STARLINK-5415,1 54796U 22175AQ  23351.46413775  .00000793  00000-0  67928-4 0  9994,2 54796  53.2183  79.5808 0001586  84.3603 275.7570 15.08832890 55205,6917.902,95.438,540.864,538.67,0.0
54796.0,STARLINK-5415,PAYLOAD,2023-12-18 10:59:07,15.0885307,0.0001425,53.2174,75.121,91.5491,268.5665,8.0146e-05,9.88e-06,0.0,0 STARLINK-5415,1 54796U 22175AQ  23352.45772573  .00000988  00000-0  80146-4 0  9991,2 54796  53.2174  75.1210 0001425  91.5491 268.5665 15.08853070 55355,6917.84,95.437,540.691,538.72,0.0
54796.0,STARLINK-5415,PAYLOAD,2023-12-18 12:34:30,15.08857295,0.0001488,53.2178,74.8227,94.3194,265.7968,0.00022757,3.337e-05,0.0,0 STARLINK-5415,1 54796U 22175AQ  23352.52395857  .00003337  00000-0  22757-3 0  9999,2 54796  53.2178  74.8227 0001488  94.3194 265.7968 15.08857295 57522,6917.828,95.436,540.722,538.663,0.0
54796.0,STARLINK-5415,PAYLOAD,2023-12-19 10:49:55,15.08840998,0.0001428,53.2177,70.6609,95.4379,264.6776,3.5799e-05,2.82e-06,0.0,0 STARLINK-5415,1 54796U 22175AQ  23353.45133472  .00000282  00000-0  35799-4 0  9992,2 54796  53.2177  70.6609 0001428  95.4379 264.6776 15.08840998 55503,6917.877,95.437,540.73,538.754,0.0
54796.0,STARLINK-5415,PAYLOAD,2023-12-20 10:40:43,15.08834521,0.0001398,53.2177,66.2002,95.9059,264.2092,-0.000175,-3.072e-05,0.0,0 STARLINK-5415,1 54796U 22175AQ  23354.44494890 -.00003072  00000-0 -17500-3 0  9997,2 54796  53.2177  66.2002 0001398  95.9059 264.2092 15.08834521 55655,6917.897,95.438,540.729,538.795,0.0
54796.0,STARLINK-5415,PAYLOAD,2023-12-21 12:06:53,15.0884325,0.0001835,53.2174,61.448,63.9812,296.1369,0.00028237,4.209e-05,0.0,0 STARLINK-5415,1 54796U 22175AQ  23355.50478341  .00004209  00000-0  28237-3 0  9998,2 54796  53.2174  61.4480 0001835  63.9812 296.1369 15.08843250 55815,6917.87,95.437,541.005,538.466,0.0
54796.0,STARLINK-5415,PAYLOAD,2023-12-21 23:14:35,15.08839545,0.0001531,53.2193,59.3655,105.2919,254.8242,0.00018085,2.591e-05,0.0,0 STARLINK-5415,1 54796U 22175AQ  23355.96846443  .00002591  00000-0  18085-3 0  9992,2 54796  53.2193  59.3655 0001531 105.2919 254.8242 15.08839545 55887,6917.882,95.438,540.806,538.688,0.0
54796.0,STARLINK-5415,PAYLOAD,2023-12-22 11:57:41,15.08838358,0.0001706,53.2195,56.986,87.265,272.8538,0.00019333,2.79e-05,0.0,0 STARLINK-5415,1 54796U 22175AQ  23356.49839179  .00002790  00000-0  19333-3 0  9997,2 54796  53.2195  56.9860 0001706  87.2650 272.8538 15.08838358 55963,6917.885,95.438,540.931,538.57,0.0
54796.0,STARLINK-5415,PAYLOAD,2023-12-23 10:13:04,15.08851551,0.0001618,53.2172,52.8223,77.4018,282.7155,0.00030463,4.565e-05,0.0,0 STARLINK-5415,1 54796U 22175AQ  23357.42574548  .00004565  00000-0  30463-3 0  9996,2 54796  53.2172  52.8223 0001618  77.4018 282.7155 15.08851551 58268,6917.845,95.437,540.829,538.591,0.0
54796.0,STARLINK-5415,PAYLOAD,2023-12-24 03:42:18,15.08848078,0.0001717,53.2174,49.5528,77.9342,282.1843,0.00024045,3.542e-05,0.0,0 STARLINK-5415,1 54796U 22175AQ  23358.15438545  .00003542  00000-0  24045-3 0  9996,2 54796  53.2174  49.5528 0001717  77.9342 282.1843 15.08848078 56217,6917.856,95.437,540.908,538.533,0.0
54796.0,STARLINK-5415,PAYLOAD,2023-12-24 10:03:51,15.08846433,0.0001665,53.2176,48.3624,89.3412,270.7771,0.00020048,2.905e-05,0.0,0 STARLINK-5415,1 54796U 22175AQ  23358.41934442  .00002905  00000-0  20048-3 0  9993,2 54796  53.2176  48.3624 0001665  89.3412 270.7771 15.08846433 58410,6917.861,95.437,540.878,538.574,0.0
54796.0,STARLINK-5415,PAYLOAD,2023-12-24 22:46:56,15.08847899,0.0001712,53.218,45.9844,91.888,268.2308,0.00013247,1.821e-05,0.0,0 STARLINK-5415,1 54796U 22175AQ  23358.94926171  .00001821  00000-0  13247-3 0  9990,2 54796  53.2180  45.9844 0001712  91.8880 268.2308 15.08847899 58495,6917.856,95.437,540.906,538.537,0.0
54796.0,STARLINK-5415,PAYLOAD,2023-12-25 09:54:38,15.08842215,0.0001365,53.2183,43.8947,100.015,260.0996,7.6203e-05,9.25e-06,0.0,0 STARLINK-5415,1 54796U 22175AQ  23359.41294203  .00000925  00000-0  76203-4 0  9993,2 54796  53.2183  43.8947 0001365 100.0150 260.0996 15.08842215 56405,6917.874,95.437,540.683,538.794,0.0
54796.0,STARLINK-5415,PAYLOAD,2023-12-26 03:23:53,15.08831871,0.00016,53.22,40.6334,97.4501,262.6673,5.5747e-06,-1.99e-06,0.0,0 STARLINK-5415,1 54796U 22175AQ  23360.14159138 -.00000199  00000-0  55747-5 0  9997,2 54796  53.2200  40.6334 0001600  97.4501 262.6673 15.08831871 56519,6917.905,95.438,540.877,538.663,0.0
54796.0,STARLINK-5415,PAYLOAD,2023-12-26 09:45:25,15.08837061,0.0001565,53.2201,39.4446,94.108,266.0091,4.4703e-05,4.23e-06,0.0,0 STARLINK-5415,1 54796U 22175AQ  23360.40654831  .00000423  00000-0  44703-4 0  9994,2 54796  53.2201  39.4446 0001565  94.1080 266.0091 15.08837061 58719,6917.889,95.438,540.837,538.672,0.0
54796.0,STARLINK-5415,PAYLOAD,2023-12-27 11:11:35,15.08843402,0.000161,53.2196,34.6853,99.1188,260.9986,5.9799e-05,6.64e-06,0.0,0 STARLINK-5415,1 54796U 22175AQ  23361.46638669  .00000664  00000-0  59799-4 0  9990,2 54796  53.2196  34.6853 0001610  99.1188 260.9986 15.08843402 56716,6917.87,95.437,540.849,538.621,0.0
54796.0,STARLINK-5415,PAYLOAD,2023-12-27 22:19:18,15.08834075,0.0001716,53.2202,32.6053,101.0925,259.026,0.00012895,1.764e-05,0.0,0 STARLINK-5415,1 54796U 22175AQ  23361.93007189  .00001764  00000-0  12895-3 0  9996,2 54796  53.2202  32.6053 0001716 101.0925 259.0260 15.08834075 56780,6917.898,95.438,540.951,538.576,0.0
54796.0,STARLINK-5415,PAYLOAD,2023-12-28 11:02:23,15.08840303,0.0001522,53.2187,30.2221,79.3959,280.7204,0.00010389,1.366e-05,0.0,0 STARLINK-5415,1 54796U 22175AQ  23362.45999143  .00001366  00000-0  10389-3 0  9998,2 54796  53.2187  30.2221 0001522  79.3959 280.7204 15.08840303 59022,6917.879,95.438,540.797,538.692,0.0
54796.0,STARLINK-5415,PAYLOAD,2023-12-29 10:53:10,15.08844838,0.0001753,53.2202,25.756,82.1644,277.9547,9.5005e-05,1.224e-05,0.0,0 STARLINK-5415,1 54796U 22175AQ  23363.45359068  .00001224  00000-0  95005-4 0  9997,2 54796  53.2202  25.7560 0001753  82.1644 277.9547 15.08844838 57016,6917.866,95.437,540.943,538.518,0.0
54796.0,STARLINK-5415,PAYLOAD,2023-12-30 01:11:38,15.08834995,0.0001551,53.2183,23.0828,105.6711,254.4453,5.1131e-05,5.26e-06,0.0,0 STARLINK-5415,1 54796U 22175AQ  23364.04975612  .00000526  00000-0  51131-4 0  9998,2 54796  53.2183  23.0828 0001551 105.6711 254.4453 15.08834995 57103,6917.896,95.438,540.834,538.688,0.0
54796.0,STARLINK-5415,PAYLOAD,2023-12-30 09:08:34,15.08840092,0.0001495,53.2181,21.5976,75.4572,284.6586,8.7936e-05,1.112e-05,0.0,0 STARLINK-5415,1 54796U 22175AQ  23364.38095385  .00001112  00000-0  87936-4 0  9999,2 54796  53.2181  21.5976 0001495  75.4572 284.6586 15.08840092 59316,6917.88,95.438,540.779,538.711,0.0
54796.0,STARLINK-5415,PAYLOAD,2023-12-31 10:34:44,15.08848259,0.0001401,53.2181,16.8391,98.7157,261.3994,4.9134e-05,4.94e-06,0.0,0 STARLINK-5415,1 54796U 22175AQ  23365.44078902  .00000494  00000-0  49134-4 0  9993,2 54796  53.2181  16.8391 0001401  98.7157 261.3994 15.08848259 57314,6917.855,95.437,540.689,538.751,0.0
54796.0,STARLINK-5415,PAYLOAD,2024-01-01 04:03:59,15.08836071,0.0001681,53.2186,13.5674,121.5892,238.5264,2.8713e-05,1.69e-06,0.0,0 STARLINK-5415,1 54796U 22175AQ  24001.16943591  .00000169  00000-0  28713-4 0  9994,2 54796  53.2186  13.5674 0001681 121.5892 238.5264 15.08836071 57425,6917.892,95.438,540.92,538.595,0.0
54796.0,STARLINK-5415,PAYLOAD,2024-01-01 10:25:31,15.08840313,0.0001642,53.2186,12.3773,117.6591,242.4568,6.4886e-05,7.45e-06,0.0,0 STARLINK-5415,1 54796U 22175AQ  24001.43439284  .00000745  00000-0  64886-4 0  9994,2 54796  53.2186  12.3773 0001642 117.6591 242.4568 15.08840313 59620,6917.879,95.438,540.88,538.609,0.0
54796.0,STARLINK-5415,PAYLOAD,2024-01-02 07:05:31,15.08847916,0.0001511,53.218,8.5117,106.8001,253.3157,0.00010709,1.417e-05,0.0,0 STARLINK-5415,1 54796U 22175AQ  24002.29550718  .00001417  00000-0  10709-3 0  9996,2 54796  53.2180   8.5117 0001511 106.8001 253.3157 15.08847916 57599,6917.856,95.437,540.766,538.676,0.0
54796.0,STARLINK-5415,PAYLOAD,2024-01-03 03:45:33,15.08835743,0.0001536,53.2178,4.6464,108.9522,251.1637,3.8993e-05,3.33e-06,0.0,0 STARLINK-5415,1 54796U 22175AQ  24003.15663699  .00000333  00000-0  38993-4 0  9997,2 54796  53.2178   4.6464 0001536 108.9522 251.1637 15.08835743 57725,6917.893,95.438,540.821,538.696,0.0
54796.0,STARLINK-5415,PAYLOAD,2024-01-03 05:20:56,15.08836958,0.0001458,53.218,4.3495,94.5959,265.52,3.1942e-05,2.2e-06,0.0,0 STARLINK-5415,1 54796U 22175AQ  24003.22287722  .00000220  00000-0  31942-4 0  9996,2 54796  53.2180   4.3495 0001458  94.5959 265.5200 15.08836958 59890,6917.89,95.438,540.763,538.746,0.0
54796.0,STARLINK-5415,PAYLOAD,2024-01-04 05:11:44,15.08836179,0.0001479,53.218,359.8898,100.1297,259.9862,-2.2827e-05,-6.51e-06,0.0,0 STARLINK-5415,1 54796U 22175AQ  24004.21648155 -.00000651  00000-0 -22827-4 0  9999,2 54796  53.2180 359.8898 0001479 100.1297 259.9862 15.08836179 57880,6917.892,95.438,540.78,538.734,0.0
